TANSAT                  
1 41898U 16081A   26179.62537631  .00000126  00000+0  36699-4 0  9999
2 41898  98.5360 180.2210 0019129 274.8469  85.0546 14.59959121506295
JILIN-1 03              
1 41914U 17002B   26179.57911260  .00011402  00000+0  27052-3 0  9991
2 41914  97.1941 186.5042 0007809 122.7599 237.4402 15.41844586523612
CARTOSAT-2D             
1 41948U 17008A   26179.61879966  .00005933  00000+0  28422-3 0  9999
2 41948  97.4111 238.7109 0004845 186.9069 173.2100 15.19295450519315
CARTOSAT-2E             
1 42767U 17036C   26179.63652762  .00007274  00000+0  34816-3 0  9999
2 42767  97.4276 239.2505 0002304 262.2429  97.8544 15.19257556499886
IRIDIUM 113             
1 42803U 17039A   26179.61262910 -.00000003  00000+0 -80357-5 0  9991
2 42803  86.3979 317.4025 0002135  89.9265 270.2175 14.34217483472827
NORSAT 2                
1 42828U 17042D   26179.46713136  .00009058  00000+0  39752-3 0  9994
2 42828  97.4037 352.7301 0009630  20.3881 339.7738 15.22136582489452
TECHNOSAT               
1 42829U 17042E   26179.41914400  .00002434  00000+0  17492-3 0  9995
2 42829  97.4291 336.6508 0019121  59.2633 301.0474 15.05025259488397
FLYING LAPTOP           
1 42831U 17042G   26179.58372714  .00003405  00000+0  26861-3 0  9991
2 42831  97.4730 334.6810 0019970  85.2696 275.0809 15.01217521488160
WNISAT 1R               
1 42835U 17042L   26179.41891167  .00002053  00000+0  16166-3 0  9990
2 42835  97.4832 335.1399 0012008 113.7089 246.5398 15.01807134488197
LEMUR-2-GREENBERG       
1 42837U 17042N   26179.45588170  .00015761  00000+0  51709-3 0  9995
2 42837  97.3815   0.0310 0007510 330.7675  29.3145 15.31665939490114
LEMUR-2-FURIAUS         
1 42840U 17042R   26179.45751911  .00016140  00000+0  54696-3 0  9994
2 42840  97.3764 357.9623 0007367  32.5167 327.6527 15.30612679489933
CORVUS BC2              
1 42846U 17042X   26179.42126738  .00002391  00000+0  16617-3 0  9994
2 42846  97.4067 340.3351 0014528  75.9529 284.3312 15.06362534488755
CORVUS BC1              
1 42847U 17042Y   26179.41463844  .00002863  00000+0  19740-3 0  9990
2 42847  97.4094 341.1499 0012900  54.6269 305.6162 15.06525730488787
VRSS-2                  
1 42954U 17060A   26179.60375308  .00001460  00000+0  19340-3 0  9995
2 42954  97.6510 216.8163 0018580  64.7658 295.5479 14.81214681470142
MOHAMMED VI-A           
1 43005U 17070A   26179.65937866  .00000837  00000+0  12570-3 0  9997
2 43005  97.9561 251.8325 0001228  77.8018 282.3329 14.77084401465674
FENGYUN 3D              
1 43010U 17072A   26179.63474199  .00000003  00000+0  23486-4 0  9992
2 43010  99.0124 154.2639 0002232  44.4310 315.7044 14.19741079446618
NOAA 20 (JPSS-1)        
1 43013U 17073A   26179.56109272  .00000040  00000+0  39977-4 0  9998
2 43013  98.7773 118.9226 0000698 134.7604 225.3629 14.19513674446083
MAKERSAT 0              
1 43016U 17073D   26179.60833345  .00016135  00000+0  43423-3 0  9993
2 43016  97.4612  62.2183 0104830 231.6102 127.5690 15.32461094468214
RADFXSAT (FOX-1B)       
1 43017U 17073E   26179.58479444  .00006671  00000+0  29239-3 0  9990
2 43017  97.4690  46.5670 0148535 289.4918  69.0319 15.12867010467115
JILIN-1 04              
1 43022U 17074A   26179.56800226  .00012628  00000+0  29092-3 0  9997
2 43022  97.4869 289.4856 0004870 144.3470 215.8104 15.42734032476021
JILIN-1 05              
1 43023U 17074B   26179.60220025  .00007579  00000+0  23243-3 0  9997
2 43023  97.4877 285.9116 0005387 173.2629 186.8687 15.34048728475755
JILIN-1 06              
1 43024U 17074C   26179.57529713  .00006093  00000+0  18863-3 0  9992
2 43024  97.4802 282.8794 0006709 187.0162 173.0987 15.33825521475581
IRIDIUM 116             
1 43072U 17083C   26179.65702740  .00000038  00000+0  65612-5 0  9996
2 43072  86.3974 317.2055 0002219 101.4171 258.7274 14.34217759445817
IRIDIUM 130             
1 43073U 17083D   26179.62531311  .00000084  00000+0  22948-4 0  9993
2 43073  86.3982 317.4951 0002022  97.4156 262.7269 14.34217464445758
LKW-2                   
1 43080U 17084A   26179.63186910  .00008645  00000+0  33380-3 0  9996
2 43080  97.1189 218.8928 0002299 149.6830 210.4543 15.26490422473438
SUPERVIEW-1 03          
1 43099U 18002A   26179.60599674  .00018080  00000+0  44210-3 0  9997
2 43099  97.3140 264.4277 0047507 139.1657 221.3165 15.39659309470122
CARTOSAT-2F             
1 43111U 18004A   26179.60288517  .00005734  00000+0  27483-3 0  9990
2 43111  97.4788 239.1263 0001854 160.5239 199.6067 15.19303591469065
LKW-3                   
1 43146U 18006A   26179.65477044  .00011090  00000+0  32419-3 0  9997
2 43146  97.6612 340.6787 0001765 254.6847 105.4200 15.35463231470478
