OBJECT_NAME,OBJECT_ID,EPOCH,MEAN_MOTION,ECCENTRICITY,INCLINATION,RA_OF_ASC_NODE,ARG_OF_PERICENTER,MEAN_ANOMALY,EPHEMERIS_TYPE,CLASSIFICATION_TYPE,NORAD_CAT_ID,ELEMENT_SET_NO,REV_AT_EPOCH,BSTAR,MEAN_MOTION_DOT,MEAN_MOTION_DDOT
TANSAT,2016-081A,2026-06-28T15:00:32.513184,14.59959121,.00191295,98.5360,180.2210,274.8469,85.0546,0,U,41898,999,50629,.36699361E-4,.126E-5,0
JILIN-1 03,2017-002B,2026-06-28T13:53:55.328640,15.41844586,.00078093,97.1941,186.5042,122.7599,237.4402,0,U,41914,999,52361,.2705171E-3,.11402E-3,0
CARTOSAT-2D,2017-008A,2026-06-28T14:51:04.290624,15.19295450,.00048456,97.4111,238.7109,186.9069,173.2100,0,U,41948,999,51931,.28421968E-3,.5933E-4,0
CARTOSAT-2E,2017-036C,2026-06-28T15:16:35.986368,15.19257556,.00023042,97.4276,239.2505,262.2429,97.8544,0,U,42767,999,49988,.34816437E-3,.7274E-4,0
IRIDIUM 113,2017-039A,2026-06-28T14:42:11.154240,14.34217483,.00021353,86.3979,317.4025,89.9265,270.2175,0,U,42803,999,47282,-.8035663E-5,-.3E-7,0
NORSAT 2,2017-042D,2026-06-28T11:12:40.149504,15.22136582,.00096304,97.4037,352.7301,20.3881,339.7738,0,U,42828,999,48945,.39751523E-3,.9058E-4,0
TECHNOSAT,2017-042E,2026-06-28T10:03:34.041600,15.05025259,.00191217,97.4291,336.6508,59.2633,301.0474,0,U,42829,999,48839,.17492153E-3,.2434E-4,0
FLYING LAPTOP,2017-042G,2026-06-28T14:00:34.024896,15.01217521,.00199705,97.4730,334.6810,85.2696,275.0809,0,U,42831,999,48816,.26861387E-3,.3405E-4,0
WNISAT 1R,2017-042L,2026-06-28T10:03:13.968288,15.01807134,.00120084,97.4832,335.1399,113.7089,246.5398,0,U,42835,999,48819,.16166072E-3,.2053E-4,0
LEMUR-2-GREENBERG,2017-042N,2026-06-28T10:56:28.178880,15.31665939,.000751,97.3815,0.0310,330.7675,29.3145,0,U,42837,999,49011,.51708611E-3,.15761E-3,0
LEMUR-2-FURIAUS,2017-042R,2026-06-28T10:58:49.651104,15.30612679,.00073674,97.3764,357.9623,32.5167,327.6527,0,U,42840,999,48993,.54695584E-3,.1614E-3,0
CORVUS BC2,2017-042X,2026-06-28T10:06:37.501632,15.06362534,.00145285,97.4067,340.3351,75.9529,284.3312,0,U,42846,999,48875,.16617386E-3,.2391E-4,0
CORVUS BC1,2017-042Y,2026-06-28T09:57:04.761216,15.06525730,.00129001,97.4094,341.1499,54.6269,305.6162,0,U,42847,999,48878,.19740066E-3,.2863E-4,0
VRSS-2,2017-060A,2026-06-28T14:29:24.266112,14.81214681,.00185806,97.6510,216.8163,64.7658,295.5479,0,U,42954,999,47014,.19340143E-3,.146E-4,0
MOHAMMED VI-A,2017-070A,2026-06-28T15:49:30.316224,14.77084401,.00012281,97.9561,251.8325,77.8018,282.3329,0,U,43005,999,46567,.12569944E-3,.837E-5,0
FENGYUN 3D,2017-072A,2026-06-28T15:14:01.707936,14.19741079,.00022324,99.0124,154.2639,44.4310,315.7044,0,U,43010,999,44661,.23485719E-4,.3E-7,0
NOAA 20 (JPSS-1),2017-073A,2026-06-28T13:27:58.411008,14.19513674,.00006988,98.7773,118.9226,134.7604,225.3629,0,U,43013,999,44608,.39976623E-4,.4E-6,0
MAKERSAT 0,2017-073D,2026-06-28T14:36:00.010080,15.32461094,.01048301,97.4612,62.2183,231.6102,127.5690,0,U,43016,999,46821,.43423246E-3,.16135E-3,0
RADFXSAT (FOX-1B),2017-073E,2026-06-28T14:02:06.239616,15.12867010,.01485354,97.4690,46.5670,289.4918,69.0319,0,U,43017,999,46711,.29239469E-3,.6671E-4,0
JILIN-1 04,2017-074A,2026-06-28T13:37:55.395264,15.42734032,.00048703,97.4869,289.4856,144.3470,215.8104,0,U,43022,999,47602,.29091673E-3,.12628E-3,0
JILIN-1 05,2017-074B,2026-06-28T14:27:10.101600,15.34048728,.0005387,97.4877,285.9116,173.2629,186.8687,0,U,43023,999,47575,.23243038E-3,.7579E-4,0
JILIN-1 06,2017-074C,2026-06-28T13:48:25.672032,15.33825521,.00067098,97.4802,282.8794,187.0162,173.0987,0,U,43024,999,47558,.18862895E-3,.6093E-4,0
IRIDIUM 116,2017-083C,2026-06-28T15:46:07.167360,14.34217759,.00022192,86.3974,317.2055,101.4171,258.7274,0,U,43072,999,44581,.6561211E-5,.38E-6,0
IRIDIUM 130,2017-083D,2026-06-28T15:00:27.052704,14.34217464,.00020227,86.3982,317.4951,97.4156,262.7269,0,U,43073,999,44575,.22947927E-4,.84E-6,0
LKW-2,2017-084A,2026-06-28T15:09:53.490240,15.26490422,.0002299,97.1189,218.8928,149.6830,210.4543,0,U,43080,999,47343,.33380463E-3,.8645E-4,0
SUPERVIEW-1 03,2018-002A,2026-06-28T14:32:38.118336,15.39659309,.00475072,97.3140,264.4277,139.1657,221.3165,0,U,43099,999,47012,.44210074E-3,.1808E-3,0
CARTOSAT-2F,2018-004A,2026-06-28T14:28:09.278688,15.19303591,.00018548,97.4788,239.1263,160.5239,199.6067,0,U,43111,999,46906,.27482839E-3,.5734E-4,0
LKW-3,2018-006A,2026-06-28T15:42:52.166016,15.35463231,.00017658,97.6612,340.6787,254.6847,105.4200,0,U,43146,999,47047,.32419201E-3,.1109E-3,0
